[
  {
    "name": "KUIPER-00153",
    "noradId": "65773",
    "line1": "1 65773U 25217M   26186.81186306  .00001800  00000+0  26515-3 0  9991",
    "line2": "2 65773  51.8993 223.3393 0000589  90.6391 269.4639 14.79925936 42617"
  },
  {
    "name": "KUIPER-00155",
    "noradId": "65774",
    "line1": "1 65774U 25217N   26187.17916558  .00001952  00000+0  28498-3 0  9992",
    "line2": "2 65774  51.9007 194.1783 0000453  73.5549 286.5463 14.79933003 43056"
  },
  {
    "name": "KUIPER-00156",
    "noradId": "65775",
    "line1": "1 65775U 25217P   26187.11574224  .00002488  00000+0  35518-3 0  9993",
    "line2": "2 65775  51.9006 221.9774 0000458  86.4787 273.6228 14.79934725 42650"
  },
  {
    "name": "KUIPER-00163",
    "noradId": "65777",
    "line1": "1 65777U 25217R   26187.25004630  .00228079  32496-4  47151-3 0  9990",
    "line2": "2 65777  51.8770 165.4192 0005759  47.1866 244.2939 15.98728225  5533"
  },
  {
    "name": "KUIPER-00165",
    "noradId": "65778",
    "line1": "1 65778U 25217S   26186.83480949  .00004563  00000+0  62691-3 0  9992",
    "line2": "2 65778  51.8999 233.1666 0000626  87.4316 272.6718 14.79951952 42478"
  },
  {
    "name": "KUIPER-00166",
    "noradId": "65779",
    "line1": "1 65779U 25217T   26186.81455395  .00002734  00000+0  38746-3 0  9990",
    "line2": "2 65779  51.9006 220.8043 0000398  81.9367 278.1641 14.79933027 42640"
  },
  {
    "name": "KUIPER-00167",
    "noradId": "65780",
    "line1": "1 65780U 25217U   26187.16164626  .00007349  00000+0  99113-3 0  9997",
    "line2": "2 65780  51.8958 241.6360 0000382  72.1248 287.9756 14.79968148 42381"
  },
  {
    "name": "KUIPER-00168",
    "noradId": "65781",
    "line1": "1 65781U 25217V   26186.84291675  .00002788  00000+0  39451-3 0  9998",
    "line2": "2 65781  51.8990 225.6355 0000438  84.8388 275.2624 14.79932644 42589"
  },
  {
    "name": "KUIPER-00169",
    "noradId": "65782",
    "line1": "1 65782U 25217W   26187.10764932  .00000366  00000+0  76992-4 0  9992",
    "line2": "2 65782  51.8980 229.4742 0000516  87.9596 272.1425 14.79928695 42556"
  },
  {
    "name": "KUIPER-00170",
    "noradId": "65783",
    "line1": "1 65783U 25217X   26187.16977713  .00002941  00000+0  41463-3 0  9997",
    "line2": "2 65783  51.8977 234.1584 0000529  94.1435 265.9588 14.79930082 42492"
  },
  {
    "name": "KUIPER-00172",
    "noradId": "65785",
    "line1": "1 65785U 25217Z   26186.81724289  .00000958  00000+0  15472-3 0  9995",
    "line2": "2 65785  51.8961 218.2459 0001013  86.3505 273.7573 14.79931359 42681"
  },
  {
    "name": "KUIPER-00173",
    "noradId": "65786",
    "line1": "1 65786U 25217AA  26187.14137785  .00006175  00000+0  83761-3 0  9995",
    "line2": "2 65786  51.8970 229.3199 0000456  71.8427 288.2585 14.79966548 42556"
  },
  {
    "name": "KUIPER-00174",
    "noradId": "65787",
    "line1": "1 65787U 25217AB  26187.07927932  .00003004  00000+0  42297-3 0  9996",
    "line2": "2 65787  51.9011 224.6434 0000479  90.6277 269.4740 14.79926513 42610"
  },
  {
    "name": "KUIPER-00176",
    "noradId": "65788",
    "line1": "1 65788U 25217AC  26187.13062251  .00001168  00000+0  18219-3 0  9994",
    "line2": "2 65788  51.8980 239.3520 0000517  93.2515 266.8507 14.79932722 42410"
  },
  {
    "name": "KUIPER-00101",
    "noradId": "65947",
    "line1": "1 65947U 25228A   26187.14269898  .00002104  00000+0  30486-3 0  9991",
    "line2": "2 65947  51.8962 196.7567 0000474  79.8102 280.2913 14.79930897 40777"
  },
  {
    "name": "KUIPER-00113",
    "noradId": "65948",
    "line1": "1 65948U 25228B   26187.18182972 -.00000931  00000+0 -93224-4 0  9991",
    "line2": "2 65948  51.8946 191.6021 0000419  55.3705 304.7297 14.79923638 40846"
  }
]