{"fetched_at":"2026-07-06T18:35:12.836Z","source":"https://celestrak.org/NORAD/elements/gp.php?GROUP=kuiper&FORMAT=JSON","constellation":"kuiper","records":[{"OBJECT_NAME":"KUIPER-00153","OBJECT_ID":"2025-217M","EPOCH":"2026-07-05T19:29:04.968384","CLASSIFICATION_TYPE":"U","MEAN_MOTION":14.79925936,"ECCENTRICITY":0.00005896,"INCLINATION":51.8993,"RA_OF_ASC_NODE":223.3393,"ARG_OF_PERICENTER":90.6391,"MEAN_ANOMALY":269.4639,"EPHEMERIS_TYPE":0,"NORAD_CAT_ID":65773,"ELEMENT_SET_NO":999,"REV_AT_EPOCH":4261,"BSTAR":0.00026515046,"MEAN_MOTION_DOT":0.000018,"MEAN_MOTION_DDOT":0},{"OBJECT_NAME":"KUIPER-00155","OBJECT_ID":"2025-217N","EPOCH":"2026-07-06T04:17:59.906112","CLASSIFICATION_TYPE":"U","MEAN_MOTION":14.79933003,"ECCENTRICITY":0.00004531,"INCLINATION":51.9007,"RA_OF_ASC_NODE":194.1783,"ARG_OF_PERICENTER":73.5549,"MEAN_ANOMALY":286.5463,"EPHEMERIS_TYPE":0,"NORAD_CAT_ID":65774,"ELEMENT_SET_NO":999,"REV_AT_EPOCH":4305,"BSTAR":0.00028498239,"MEAN_MOTION_DOT":0.00001952,"MEAN_MOTION_DDOT":0},{"OBJECT_NAME":"KUIPER-00156","OBJECT_ID":"2025-217P","EPOCH":"2026-07-06T02:46:40.129536","CLASSIFICATION_TYPE":"U","MEAN_MOTION":14.79934725,"ECCENTRICITY":0.00004583,"INCLINATION":51.9006,"RA_OF_ASC_NODE":221.9774,"ARG_OF_PERICENTER":86.4787,"MEAN_ANOMALY":273.6228,"EPHEMERIS_TYPE":0,"NORAD_CAT_ID":65775,"ELEMENT_SET_NO":999,"REV_AT_EPOCH":4265,"BSTAR":0.00035517578,"MEAN_MOTION_DOT":0.00002488,"MEAN_MOTION_DDOT":0},{"OBJECT_NAME":"KUIPER-00163","OBJECT_ID":"2025-217R","EPOCH":"2026-07-06T06:00:04.000320","CLASSIFICATION_TYPE":"U","MEAN_MOTION":15.98728225,"ECCENTRICITY":0.00057595,"INCLINATION":51.877,"RA_OF_ASC_NODE":165.4192,"ARG_OF_PERICENTER":47.1866,"MEAN_ANOMALY":244.2939,"EPHEMERIS_TYPE":0,"NORAD_CAT_ID":65777,"ELEMENT_SET_NO":999,"REV_AT_EPOCH":553,"BSTAR":0.0004715108,"MEAN_MOTION_DOT":0.00228079,"MEAN_MOTION_DDOT":0.000032496137},{"OBJECT_NAME":"KUIPER-00165","OBJECT_ID":"2025-217S","EPOCH":"2026-07-05T20:02:07.539936","CLASSIFICATION_TYPE":"U","MEAN_MOTION":14.79951952,"ECCENTRICITY":0.00006269,"INCLINATION":51.8999,"RA_OF_ASC_NODE":233.1666,"ARG_OF_PERICENTER":87.4316,"MEAN_ANOMALY":272.6718,"EPHEMERIS_TYPE":0,"NORAD_CAT_ID":65778,"ELEMENT_SET_NO":999,"REV_AT_EPOCH":4247,"BSTAR":0.0006269065,"MEAN_MOTION_DOT":0.00004563,"MEAN_MOTION_DDOT":0},{"OBJECT_NAME":"KUIPER-00166","OBJECT_ID":"2025-217T","EPOCH":"2026-07-05T19:32:57.461280","CLASSIFICATION_TYPE":"U","MEAN_MOTION":14.79933027,"ECCENTRICITY":0.00003981,"INCLINATION":51.9006,"RA_OF_ASC_NODE":220.8043,"ARG_OF_PERICENTER":81.9367,"MEAN_ANOMALY":278.1641,"EPHEMERIS_TYPE":0,"NORAD_CAT_ID":65779,"ELEMENT_SET_NO":999,"REV_AT_EPOCH":4264,"BSTAR":0.00038745941,"MEAN_MOTION_DOT":0.00002734,"MEAN_MOTION_DDOT":0},{"OBJECT_NAME":"KUIPER-00167","OBJECT_ID":"2025-217U","EPOCH":"2026-07-06T03:52:46.236864","CLASSIFICATION_TYPE":"U","MEAN_MOTION":14.79968148,"ECCENTRICITY":0.00003824,"INCLINATION":51.8958,"RA_OF_ASC_NODE":241.636,"ARG_OF_PERICENTER":72.1248,"MEAN_ANOMALY":287.9756,"EPHEMERIS_TYPE":0,"NORAD_CAT_ID":65780,"ELEMENT_SET_NO":999,"REV_AT_EPOCH":4238,"BSTAR":0.00099113202,"MEAN_MOTION_DOT":0.00007349,"MEAN_MOTION_DDOT":0},{"OBJECT_NAME":"KUIPER-00168","OBJECT_ID":"2025-217V","EPOCH":"2026-07-05T20:13:48.007200","CLASSIFICATION_TYPE":"U","MEAN_MOTION":14.79932644,"ECCENTRICITY":0.00004389,"INCLINATION":51.899,"RA_OF_ASC_NODE":225.6355,"ARG_OF_PERICENTER":84.8388,"MEAN_ANOMALY":275.2624,"EPHEMERIS_TYPE":0,"NORAD_CAT_ID":65781,"ELEMENT_SET_NO":999,"REV_AT_EPOCH":4258,"BSTAR":0.00039451076,"MEAN_MOTION_DOT":0.00002788,"MEAN_MOTION_DDOT":0},{"OBJECT_NAME":"KUIPER-00169","OBJECT_ID":"2025-217W","EPOCH":"2026-07-06T02:35:00.901248","CLASSIFICATION_TYPE":"U","MEAN_MOTION":14.79928695,"ECCENTRICITY":0.00005169,"INCLINATION":51.898,"RA_OF_ASC_NODE":229.4742,"ARG_OF_PERICENTER":87.9596,"MEAN_ANOMALY":272.1425,"EPHEMERIS_TYPE":0,"NORAD_CAT_ID":65782,"ELEMENT_SET_NO":999,"REV_AT_EPOCH":4255,"BSTAR":0.000076992032,"MEAN_MOTION_DOT":0.00000366,"MEAN_MOTION_DDOT":0},{"OBJECT_NAME":"KUIPER-00170","OBJECT_ID":"2025-217X","EPOCH":"2026-07-06T04:04:28.744032","CLASSIFICATION_TYPE":"U","MEAN_MOTION":14.79930082,"ECCENTRICITY":0.00005291,"INCLINATION":51.8977,"RA_OF_ASC_NODE":234.1584,"ARG_OF_PERICENTER":94.1435,"MEAN_ANOMALY":265.9588,"EPHEMERIS_TYPE":0,"NORAD_CAT_ID":65783,"ELEMENT_SET_NO":999,"REV_AT_EPOCH":4249,"BSTAR":0.00041463163,"MEAN_MOTION_DOT":0.00002941,"MEAN_MOTION_DDOT":0},{"OBJECT_NAME":"KUIPER-00172","OBJECT_ID":"2025-217Z","EPOCH":"2026-07-05T19:36:49.785696","CLASSIFICATION_TYPE":"U","MEAN_MOTION":14.79931359,"ECCENTRICITY":0.00010136,"INCLINATION":51.8961,"RA_OF_ASC_NODE":218.2459,"ARG_OF_PERICENTER":86.3505,"MEAN_ANOMALY":273.7573,"EPHEMERIS_TYPE":0,"NORAD_CAT_ID":65785,"ELEMENT_SET_NO":999,"REV_AT_EPOCH":4268,"BSTAR":0.00015472292,"MEAN_MOTION_DOT":0.00000958,"MEAN_MOTION_DDOT":0},{"OBJECT_NAME":"KUIPER-00173","OBJECT_ID":"2025-217AA","EPOCH":"2026-07-06T03:23:35.046240","CLASSIFICATION_TYPE":"U","MEAN_MOTION":14.79966548,"ECCENTRICITY":0.00004568,"INCLINATION":51.897,"RA_OF_ASC_NODE":229.3199,"ARG_OF_PERICENTER":71.8427,"MEAN_ANOMALY":288.2585,"EPHEMERIS_TYPE":0,"NORAD_CAT_ID":65786,"ELEMENT_SET_NO":999,"REV_AT_EPOCH":4255,"BSTAR":0.00083761238,"MEAN_MOTION_DOT":0.00006175,"MEAN_MOTION_DDOT":0},{"OBJECT_NAME":"KUIPER-00174","OBJECT_ID":"2025-217AB","EPOCH":"2026-07-06T01:54:09.733248","CLASSIFICATION_TYPE":"U","MEAN_MOTION":14.79926513,"ECCENTRICITY":0.00004797,"INCLINATION":51.9011,"RA_OF_ASC_NODE":224.6434,"ARG_OF_PERICENTER":90.6277,"MEAN_ANOMALY":269.474,"EPHEMERIS_TYPE":0,"NORAD_CAT_ID":65787,"ELEMENT_SET_NO":999,"REV_AT_EPOCH":4261,"BSTAR":0.00042297383,"MEAN_MOTION_DOT":0.00003004,"MEAN_MOTION_DDOT":0},{"OBJECT_NAME":"KUIPER-00176","OBJECT_ID":"2025-217AC","EPOCH":"2026-07-06T03:08:05.784864","CLASSIFICATION_TYPE":"U","MEAN_MOTION":14.79932722,"ECCENTRICITY":0.00005178,"INCLINATION":51.898,"RA_OF_ASC_NODE":239.352,"ARG_OF_PERICENTER":93.2515,"MEAN_ANOMALY":266.8507,"EPHEMERIS_TYPE":0,"NORAD_CAT_ID":65788,"ELEMENT_SET_NO":999,"REV_AT_EPOCH":4241,"BSTAR":0.00018218596,"MEAN_MOTION_DOT":0.00001168,"MEAN_MOTION_DDOT":0},{"OBJECT_NAME":"KUIPER-00101","OBJECT_ID":"2025-228A","EPOCH":"2026-07-06T03:25:29.191872","CLASSIFICATION_TYPE":"U","MEAN_MOTION":14.79930897,"ECCENTRICITY":0.00004741,"INCLINATION":51.8962,"RA_OF_ASC_NODE":196.7567,"ARG_OF_PERICENTER":79.8102,"MEAN_ANOMALY":280.2913,"EPHEMERIS_TYPE":0,"NORAD_CAT_ID":65947,"ELEMENT_SET_NO":999,"REV_AT_EPOCH":4077,"BSTAR":0.00030486275,"MEAN_MOTION_DOT":0.00002104,"MEAN_MOTION_DDOT":0},{"OBJECT_NAME":"KUIPER-00113","OBJECT_ID":"2025-228B","EPOCH":"2026-07-06T04:21:50.087808","CLASSIFICATION_TYPE":"U","MEAN_MOTION":14.79923638,"ECCENTRICITY":0.00004198,"INCLINATION":51.8946,"RA_OF_ASC_NODE":191.6021,"ARG_OF_PERICENTER":55.3705,"MEAN_ANOMALY":304.7297,"EPHEMERIS_TYPE":0,"NORAD_CAT_ID":65948,"ELEMENT_SET_NO":999,"REV_AT_EPOCH":4084,"BSTAR":-0.000093223777,"MEAN_MOTION_DOT":-0.00000931,"MEAN_MOTION_DDOT":0}]}
